OBJECT_NAME,OBJECT_ID,EPOCH,MEAN_MOTION,ECCENTRICITY,INCLINATION,RA_OF_ASC_NODE,ARG_OF_PERICENTER,MEAN_ANOMALY,EPHEMERIS_TYPE,CLASSIFICATION_TYPE,NORAD_CAT_ID,ELEMENT_SET_NO,REV_AT_EPOCH,BSTAR,MEAN_MOTION_DOT,MEAN_MOTION_DDOT
UKUBE-1,2014-037F,2026-07-12T13:14:11.381568,15.13926240,.00032997,98.4241,199.4960,92.2781,267.8825,0,U,40074,999,65239,.26996555E-3,.4813E-4,0
GAOFEN-2,2014-049A,2026-07-12T15:34:44.833728,14.80924253,.000807,98.0103,257.8307,141.7874,218.3912,0,U,40118,999,64300,-.2010627E-5,-.69E-6,0
BRITE-PL2 (HEWELIUSZ),2014-049B,2026-07-11T21:01:11.261856,14.94681645,.0014633,97.9118,305.0696,33.0365,327.1766,0,U,40119,999,64513,.9874E-4,.1013E-4,0
CBERS 4,2014-079A,2026-07-12T14:49:34.830336,14.35516288,.0000916,98.3525,249.6499,51.6013,308.5255,0,U,40336,999,60760,.94843845E-4,.231E-5,0
SMAP,2015-003A,2026-07-12T14:01:04.543968,14.63387828,.00015791,98.1282,200.3194,95.9531,264.1851,0,U,40376,999,61133,.48500059E-4,.204E-5,0
GONETS-M 11,2015-020A,2026-07-12T14:33:28.727136,12.42878588,.00154789,82.4864,15.1494,309.2719,50.6987,0,U,40552,999,51189,.65859243E-3,.101E-5,0
GONETS-M 12,2015-020B,2026-07-12T13:54:54.713952,12.42892313,.00143152,82.4897,16.2967,293.4092,66.5482,0,U,40553,999,51188,.77224882E-3,.117E-5,0
GONETS-M 13,2015-020C,2026-07-12T13:17:20.111136,12.42872090,.00128163,82.4859,14.9204,277.4279,82.5345,0,U,40554,999,51185,.8218284E-3,.124E-5,0
DMC3-FM1,2015-032A,2026-07-12T14:17:16.994976,14.85768165,.0005149,97.6441,57.7705,347.6286,12.4802,0,U,40715,999,59368,.9171594E-4,.746E-5,0
DMC3-FM2,2015-032B,2026-07-12T14:48:53.339328,14.85771119,.00058095,97.6494,59.3827,351.3342,8.7772,0,U,40716,999,59368,-.1310062E-4,-.165E-5,0
DMC3-FM3,2015-032C,2026-07-12T15:22:44.713920,14.85759745,.00050347,97.6544,61.1742,352.7662,7.3480,0,U,40717,999,59369,.23881221E-4,.156E-5,0
CARBONITE 1 (CBNT-1),2015-032D,2026-07-12T14:36:47.272608,14.83664090,.00136066,97.6518,10.6136,205.8949,154.1586,0,U,40718,999,59311,.11590201E-3,.907E-5,0
DEORBITSAIL,2015-032E,2026-07-12T13:43:14.256192,15.04201650,.00136302,97.5863,49.9223,143.1270,217.0896,0,U,40719,999,59506,.26959761E-3,.3691E-4,0
2015-049G,2015-049G,2026-07-12T15:33:16.355808,15.68581469,.00066841,97.4538,239.2898,122.2905,237.9004,0,U,40905,999,60043,.29196973E-3,.33041E-3,0
LILACSAT-2,2015-049K,2026-07-12T13:10:09.022656,15.52293452,.00082485,97.4630,231.3641,149.2429,210.9308,0,U,40908,999,59968,.19485516E-3,.11762E-3,0
COSMOS 2507 (RODNIK-S 13),2015-050A,2026-07-12T14:06:40.349664,12.42927439,.0009122,82.4917,63.8540,299.6316,60.3855,0,U,40920,999,49001,.33670569E-3,.56E-6,0
COSMOS 2508 (RODNIK-S 14),2015-050B,2026-07-12T14:58:09.590304,12.42915049,.00140599,82.4869,62.3271,332.6380,27.3957,0,U,40921,999,49000,.41273647E-3,.67E-6,0
COSMOS 2509 (RODNIK-S 15),2015-050C,2026-07-12T15:28:20.817696,12.42884514,.00147446,82.4877,62.4191,349.7554,10.3223,0,U,40922,999,49004,.39493286E-3,.65E-6,0
LQSAT,2015-057A,2026-07-12T14:43:39.187200,14.76812922,.00165961,97.6690,185.7311,184.4058,175.7009,0,U,40958,999,57906,.89639437E-4,.582E-5,0
LINGQIAO VIDEO A,2015-057B,2026-07-12T14:58:28.745184,14.77425940,.00164235,97.6630,187.1723,181.3632,178.7537,0,U,40959,999,57916,.11338633E-3,.76E-5,0
LINGQIAO VIDEO B,2015-057C,2026-07-12T14:22:15.792960,14.77528858,.00165993,97.6595,188.3050,181.5523,178.5640,0,U,40960,999,57920,.6918442E-5,.1E-7,0
JILIN-1,2015-057D,2026-07-12T14:25:19.672032,14.78198926,.00169745,97.6518,191.7072,175.2231,184.9146,0,U,40961,999,57936,.63026742E-4,.409E-5,0
FOX-1A (AO-85),2015-058D,2026-07-12T10:30:06.709824,14.91077888,.01321369,64.7723,200.5056,46.8579,314.3491,0,U,40967,999,11733,.15568718E-3,.1646E-4,0
SINOD-D 1,2015-058E,2026-07-12T09:56:45.843936,14.96071501,.01208123,64.7730,179.9000,43.2193,317.8323,0,U,40968,999,12043,.23567524E-3,.2893E-4,0
ELEKTRO-L 2,2015-074A,2026-07-12T10:01:14.661120,1.00272262,.00009352,6.7537,70.2096,216.0693,139.8337,0,U,41105,999,3875,0,-.122E-5,0
DAMPE,2015-078A,2026-07-12T14:18:14.857920,15.30850499,.0011897,97.4564,199.1885,355.0465,5.0657,0,U,41173,999,58843,.40270719E-4,.1124E-4,0
ORBCOMM FM114,2015-081A,2026-07-12T04:21:20.119968,14.58885509,.0003037,47.0034,243.8332,297.4398,62.6179,0,U,41179,999,56140,.61313344E-4,.118E-5,0
ORBCOMM FM110,2015-081D,2026-07-12T12:17:03.074496,14.58916062,.00034922,47.0008,241.6985,211.7770,148.2905,0,U,41182,999,56132,.72511838E-4,.172E-5,0
ORBCOMM FM112,2015-081F,2026-07-12T06:37:58.613376,14.58936102,.00038452,46.9979,151.6029,316.6291,43.4292,0,U,41184,999,56261,.11151057E-3,.356E-5,0
ORBCOMM FM113,2015-081G,2026-07-12T06:05:33.474624,14.58880263,.0002371,46.9996,152.0986,310.5234,49.5445,0,U,41185,999,56259,.65989E-4,.141E-5,0
ORBCOMM FM108,2015-081J,2026-07-12T15:02:37.195296,14.58908286,.00027969,47.0052,61.9155,312.7236,47.3414,0,U,41187,999,56379,.96106892E-4,.283E-5,0
ORBCOMM FM117,2015-081K,2026-07-12T01:04:17.745312,14.58894935,.00032503,47.0015,63.2961,317.3276,42.7357,0,U,41188,999,56375,.96121211E-4,.283E-5,0
ORBCOMM FM116,2015-081L,2026-07-12T05:31:34.888224,14.58903801,.000145,47.0013,152.2072,221.9214,138.1561,0,U,41189,999,56259,.50766E-4,.69E-6,0
CHUBUSAT-2,2016-012B,2026-07-12T06:40:49.728576,15.21123095,.0008625,30.9960,156.6965,333.0464,26.9728,0,U,41338,999,57224,.15031724E-3,.3545E-4,0
CHUBUSAT-3,2016-012C,2026-07-12T07:28:47.520768,15.18754200,.00089994,31.0031,166.6672,319.2461,40.7506,0,U,41339,999,57202,.13942093E-3,.308E-4,0
ZIYUAN 3-02 (ZY 3-02),2016-033A,2026-07-12T15:28:12.148320,15.21418898,.00138047,97.3832,268.9292,193.8763,166.2096,0,U,41556,999,56185,.13730664E-3,.302E-4,0
CARTOSAT-2C,2016-040A,2026-07-12T14:46:58.740960,15.19253622,.00097928,97.4481,253.2416,53.5958,306.6178,0,U,41599,999,55757,.11687023E-3,.2397E-4,0
LAPAN-A3,2016-040E,2026-07-12T15:28:38.220384,15.33267563,.0008298,97.1503,188.9581,287.5286,72.5050,0,U,41603,999,55871,.65008309E-4,.2016E-4,0
GAOFEN-3,2016-049A,2026-07-12T14:45:41.401728,14.42218588,.00017916,98.4017,201.0169,85.8402,274.2992,0,U,41727,999,52231,.2080745E-4,.25E-6,0
PRATHAM,2016-059A,2026-07-12T13:04:56.443008,14.67224013,.00322583,97.8335,189.2900,135.9093,224.4693,0,U,41783,999,52323,.67267738E-4,.335E-5,0
ALSAT-1N,2016-059G,2026-07-12T14:02:14.013888,14.69346912,.00273931,97.8017,195.8048,105.3798,255.0438,0,U,41789,999,52373,.97218103E-4,.531E-5,0
CAS-2T & KS-1Q,2016-066G,2026-07-12T04:09:30.210912,14.44766328,.03423985,98.3814,268.6236,53.9111,309.3277,0,U,41847,999,50840,.95448857E-4,.623E-5,0
YUNHAI-1 01,2016-068A,2026-07-12T14:09:15.931872,14.32720755,.00033898,98.5850,204.3599,356.6834,3.4327,0,U,41857,999,50546,.88555959E-4,.197E-5,0
RESOURCESAT-2A,2016-074A,2026-07-12T14:52:14.204640,14.21609130,.0002561,98.7524,266.9151,34.2794,325.8548,0,U,41877,999,49791,.18184287E-3,.355E-5,0
TANSAT,2016-081A,2026-07-12T14:33:24.175584,14.59970244,.00192966,98.5370,194.6159,228.5989,131.3552,0,U,41898,999,50833,.46283631E-4,.172E-5,0
JILIN-1 03,2017-002B,2026-07-12T14:17:55.187232,15.42188471,.00079557,97.1946,200.3321,86.3054,273.9103,0,U,41914,999,52577,.20887278E-3,.8885E-4,0
CARTOSAT-2D,2017-008A,2026-07-12T15:32:45.602592,15.19272252,.00057679,97.4098,252.4759,146.2764,213.8838,0,U,41948,999,52144,.12183582E-3,.2502E-4,0
CARTOSAT-2E,2017-036C,2026-07-12T14:23:25.734624,15.19242568,.00029649,97.4268,252.9812,196.5299,163.5839,0,U,42767,999,50200,.10855409E-3,.2219E-4,0
D-SAT,2017-036AF,2026-07-11T08:50:40.676640,15.17357222,.00830358,97.5566,171.2224,78.2998,282.7538,0,U,42794,999,49452,.24368091E-3,.5245E-4,0
IRIDIUM 113,2017-039A,2026-07-12T10:14:35.081952,14.34216999,.00020432,86.3989,311.6294,90.8641,269.2789,0,U,42803,999,47480,-.16056469E-4,-.25E-6,0
NORSAT 2,2017-042D,2026-07-12T11:14:16.678176,15.22395979,.0008409,97.4045,6.5177,329.0290,31.0450,0,U,42828,999,49158,.23472119E-3,.5357E-4,0
TECHNOSAT,2017-042E,2026-07-12T07:32:38.411808,15.05099876,.00176948,97.4310,350.0210,12.7462,347.4209,0,U,42829,999,49048,.15666364E-3,.2176E-4,0
FLYING LAPTOP,2017-042G,2026-07-12T13:56:13.147008,15.01302217,.00198204,97.4790,348.1565,40.8258,319.4447,0,U,42831,999,49026,.17186147E-3,.2162E-4,0
WNISAT 1R,2017-042L,2026-07-12T09:51:13.692960,15.01855093,.00111996,97.4824,348.6321,73.3474,286.8979,0,U,42835,999,49029,.53772376E-4,.645E-5,0
LEMUR-2-GREENBERG,2017-042N,2026-07-09T11:53:19.376160,15.32031511,.00071356,97.3831,11.0293,283.6729,76.3718,0,U,42837,999,49180,.3749711E-3,.11532E-3,0
LEMUR-2-FURIAUS,2017-042R,2026-07-12T10:41:36.677760,15.31072029,.00062398,97.3775,11.8672,340.6601,19.4403,0,U,42840,999,49207,.35675373E-3,.10642E-3,0
CORVUS BC2,2017-042X,2026-07-12T10:29:08.942784,15.06449617,.00137355,97.4089,353.8106,32.7025,327.5051,0,U,42846,999,49086,.10977565E-3,.1563E-4,0
CORVUS BC1,2017-042Y,2026-07-12T10:17:22.464672,15.06612257,.0011892,97.4116,354.6330,10.4044,349.7427,0,U,42847,999,49089,.81622653E-4,.1151E-4,0
VRSS-2,2017-060A,2026-07-12T15:42:52.751808,14.81235075,.001766,97.6507,230.2334,21.7132,338.4826,0,U,42954,999,47222,.75661403E-4,.541E-5,0
MOHAMMED VI-A,2017-070A,2026-07-12T14:44:22.694784,14.77100160,.00012019,97.9554,265.5942,94.3184,265.8163,0,U,43005,999,46773,.41798558E-4,.245E-5,0
FENGYUN 3D,2017-072A,2026-07-12T14:07:44.798880,14.19743274,.00017214,99.0135,168.4715,20.4882,339.6362,0,U,43010,999,44859,-.10709095E-3,-.273E-5,0
CZ-4C R/B,2017-072C,2026-07-12T13:21:24.585984,14.58808060,.01234865,98.5811,302.3883,73.9763,287.4995,0,U,43012,999,46033,.42110672E-4,.163E-5,0
NOAA 20 (JPSS-1),2017-073A,2026-07-12T14:06:30.250368,14.19516133,.00012894,98.7773,132.8253,126.6905,233.4390,0,U,43013,999,44807,.27274137E-4,.13E-6,0
MAKERSAT 0,2017-073D,2026-07-12T13:54:40.082112,15.32941144,.01053102,97.4594,76.3068,181.5697,178.5231,0,U,43016,999,47035,.32530215E-3,.12278E-3,0
RADFXSAT (FOX-1B),2017-073E,2026-07-12T14:32:33.929664,15.13039278,.01481204,97.4674,60.3031,240.5020,118.1370,0,U,43017,999,46923,.15082623E-3,.3412E-4,0
